LEMUR-2-MONSON          
1 42839U 17042Q   26068.46195507  .00017976  00000+0  72201-3 0  9993
2 42839  97.4034 249.9036 0006619 352.7862   7.3279 15.24988734472959
KUIPER-00155            
1 65774U 25217N   26068.27121362  .00019122  00000+0  81110-3 0  9990
2 65774  51.8785  13.4958 0005405 320.4858  39.5728 15.23116677 25256
